[{"OBJECT_NAME":"ONEWEB-0377","OBJECT_ID":"2021-090AA","EPOCH":"2025-12-16T06:49:59.582496","MEAN_MOTION":13.20769099,"ECCENTRICITY":0.00016802,"INCLINATION":87.9205,"RA_OF_ASC_NODE":310.9123,"ARG_OF_PERICENTER":84.2532,"MEAN_ANOMALY":275.8793,"EPHEMERIS_TYPE":0,"CLASSIFICATION_TYPE":"U","NORAD_CAT_ID":49303,"ELEMENT_SET_NO":999,"REV_AT_EPOCH":20637,"BSTAR":-3.1200358e-5,"MEAN_MOTION_DOT":0,"MEAN_MOTION_DDOT":0},{"OBJECT_NAME":"ONEWEB-0378","OBJECT_ID":"2021-090AB","EPOCH":"2025-12-16T07:21:49.760352","MEAN_MOTION":13.20771285,"ECCENTRICITY":0.00018904,"INCLINATION":87.9202,"RA_OF_ASC_NODE":310.9221,"ARG_OF_PERICENTER":85.44,"MEAN_ANOMALY":274.695,"EPHEMERIS_TYPE":0,"CLASSIFICATION_TYPE":"U","NORAD_CAT_ID":49304,"ELEMENT_SET_NO":999,"REV_AT_EPOCH":20564,"BSTAR":0.00028051591,"MEAN_MOTION_DOT":1.27e-6,"MEAN_MOTION_DDOT":0},{"OBJECT_NAME":"ONEWEB-0379","OBJECT_ID":"2021-090AC","EPOCH":"2025-12-15T23:23:23.893440","MEAN_MOTION":13.14501015,"ECCENTRICITY":0.00019155,"INCLINATION":87.8992,"RA_OF_ASC_NODE":326.2078,"ARG_OF_PERICENTER":86.1384,"MEAN_ANOMALY":273.9964,"EPHEMERIS_TYPE":0,"CLASSIFICATION_TYPE":"U","NORAD_CAT_ID":49305,"ELEMENT_SET_NO":999,"REV_AT_EPOCH":20349,"BSTAR":-0.00061296676,"MEAN_MOTION_DOT":-2.14e-6,"MEAN_MOTION_DDOT":0},{"OBJECT_NAME":"ONEWEB-0380","OBJECT_ID":"2021-090AD","EPOCH":"2025-12-16T05:44:28.115520","MEAN_MOTION":13.19724211,"ECCENTRICITY":0.00017008,"INCLINATION":87.9199,"RA_OF_ASC_NODE":341.3768,"ARG_OF_PERICENTER":94.2092,"MEAN_ANOMALY":265.9235,"EPHEMERIS_TYPE":0,"CLASSIFICATION_TYPE":"U","NORAD_CAT_ID":49306,"ELEMENT_SET_NO":999,"REV_AT_EPOCH":20229,"BSTAR":-2.292076e-5,"MEAN_MOTION_DOT":4.0e-8,"MEAN_MOTION_DDOT":0},{"OBJECT_NAME":"ONEWEB-0381","OBJECT_ID":"2021-090AE","EPOCH":"2025-12-16T06:45:15.793920","MEAN_MOTION":13.20770553,"ECCENTRICITY":0.00018599,"INCLINATION":87.9203,"RA_OF_ASC_NODE":310.9159,"ARG_OF_PERICENTER":89.7049,"MEAN_ANOMALY":270.4297,"EPHEMERIS_TYPE":0,"CLASSIFICATION_TYPE":"U","NORAD_CAT_ID":49307,"ELEMENT_SET_NO":999,"REV_AT_EPOCH":20568,"BSTAR":5.4010913e-5,"MEAN_MOTION_DOT":3.5e-7,"MEAN_MOTION_DDOT":0},{"OBJECT_NAME":"ONEWEB-0382","OBJECT_ID":"2021-090AF","EPOCH":"2025-12-16T08:16:09.098400","MEAN_MOTION":13.20769303,"ECCENTRICITY":0.00020537,"INCLINATION":87.9207,"RA_OF_ASC_NODE":310.8992,"ARG_OF_PERICENTER":90.2924,"MEAN_ANOMALY":269.8445,"EPHEMERIS_TYPE":0,"CLASSIFICATION_TYPE":"U","NORAD_CAT_ID":49308,"ELEMENT_SET_NO":999,"REV_AT_EPOCH":20568,"BSTAR":0.00011314675,"MEAN_MOTION_DOT":5.9e-7,"MEAN_MOTION_DDOT":0},{"OBJECT_NAME":"ONEWEB-0383","OBJECT_ID":"2021-090AG","EPOCH":"2025-12-16T08:22:18.423840","MEAN_MOTION":13.14504625,"ECCENTRICITY":0.00019575,"INCLINATION":87.8997,"RA_OF_ASC_NODE":326.1181,"ARG_OF_PERICENTER":87.1495,"MEAN_ANOMALY":272.9858,"EPHEMERIS_TYPE":0,"CLASSIFICATION_TYPE":"U","NORAD_CAT_ID":49309,"ELEMENT_SET_NO":999,"REV_AT_EPOCH":20357,"BSTAR":-0.000378567,"MEAN_MOTION_DOT":-1.28e-6,"MEAN_MOTION_DDOT":0},{"OBJECT_NAME":"ONEWEB-0384","OBJECT_ID":"2021-090AH","EPOCH":"2025-12-16T08:06:34.087392","MEAN_MOTION":13.2079959,"ECCENTRICITY":0.00022174,"INCLINATION":87.9217,"RA_OF_ASC_NODE":310.9366,"ARG_OF_PERICENTER":92.7783,"MEAN_ANOMALY":267.3604,"EPHEMERIS_TYPE":0,"CLASSIFICATION_TYPE":"U","NORAD_CAT_ID":49310,"ELEMENT_SET_NO":999,"REV_AT_EPOCH":20569,"BSTAR":0.00011665189,"MEAN_MOTION_DOT":6.0e-7,"MEAN_MOTION_DDOT":0},{"OBJECT_NAME":"ONEWEB-0385","OBJECT_ID":"2021-090AJ","EPOCH":"2025-12-16T08:04:48.072864","MEAN_MOTION":13.20770643,"ECCENTRICITY":0.00018638,"INCLINATION":87.9203,"RA_OF_ASC_NODE":310.9053,"ARG_OF_PERICENTER":85.9588,"MEAN_ANOMALY":274.1758,"EPHEMERIS_TYPE":0,"CLASSIFICATION_TYPE":"U","NORAD_CAT_ID":49311,"ELEMENT_SET_NO":999,"REV_AT_EPOCH":20566,"BSTAR":0.00012228371,"MEAN_MOTION_DOT":6.3e-7,"MEAN_MOTION_DDOT":0},{"OBJECT_NAME":"ONEWEB-0386","OBJECT_ID":"2021-090AK","EPOCH":"2025-12-16T06:40:42.979872","MEAN_MOTION":13.20770594,"ECCENTRICITY":0.00020346,"INCLINATION":87.9209,"RA_OF_ASC_NODE":310.9013,"ARG_OF_PERICENTER":88.0237,"MEAN_ANOMALY":272.1129,"EPHEMERIS_TYPE":0,"CLASSIFICATION_TYPE":"U","NORAD_CAT_ID":49312,"ELEMENT_SET_NO":999,"REV_AT_EPOCH":20567,"BSTAR":5.835095e-6,"MEAN_MOTION_DOT":1.5e-7,"MEAN_MOTION_DDOT":0},{"OBJECT_NAME":"ONEWEB-0387","OBJECT_ID":"2021-090AL","EPOCH":"2025-12-16T08:07:04.705824","MEAN_MOTION":13.20771186,"ECCENTRICITY":0.00016574,"INCLINATION":87.9201,"RA_OF_ASC_NODE":310.9345,"ARG_OF_PERICENTER":90.5749,"MEAN_ANOMALY":269.5574,"EPHEMERIS_TYPE":0,"CLASSIFICATION_TYPE":"U","NORAD_CAT_ID":49313,"ELEMENT_SET_NO":999,"REV_AT_EPOCH":20568,"BSTAR":0.00010236823,"MEAN_MOTION_DOT":5.5e-7,"MEAN_MOTION_DDOT":0},{"OBJECT_NAME":"ONEWEB-0388","OBJECT_ID":"2021-090AM","EPOCH":"2025-12-16T05:37:38.413632","MEAN_MOTION":13.19724362,"ECCENTRICITY":0.0001926,"INCLINATION":87.9195,"RA_OF_ASC_NODE":341.3784,"ARG_OF_PERICENTER":91.3802,"MEAN_ANOMALY":268.7551,"EPHEMERIS_TYPE":0,"CLASSIFICATION_TYPE":"U","NORAD_CAT_ID":49314,"ELEMENT_SET_NO":999,"REV_AT_EPOCH":20228,"BSTAR":0.00011415142,"MEAN_MOTION_DOT":5.9e-7,"MEAN_MOTION_DDOT":0},{"OBJECT_NAME":"ONEWEB-0389","OBJECT_ID":"2021-132A","EPOCH":"2025-12-16T04:37:16.283712","MEAN_MOTION":13.17648601,"ECCENTRICITY":0.00018577,"INCLINATION":87.9112,"RA_OF_ASC_NODE":42.2576,"ARG_OF_PERICENTER":112.1573,"MEAN_ANOMALY":247.9756,"EPHEMERIS_TYPE":0,"CLASSIFICATION_TYPE":"U","NORAD_CAT_ID":50469,"ELEMENT_SET_NO":999,"REV_AT_EPOCH":19398,"BSTAR":0.00021205638,"MEAN_MOTION_DOT":9.5e-7,"MEAN_MOTION_DDOT":0},{"OBJECT_NAME":"ONEWEB-0390","OBJECT_ID":"2021-132B","EPOCH":"2025-12-16T04:39:41.827968","MEAN_MOTION":13.17649943,"ECCENTRICITY":0.00015241,"INCLINATION":87.9108,"RA_OF_ASC_NODE":42.2592,"ARG_OF_PERICENTER":98.4695,"MEAN_ANOMALY":261.6609,"EPHEMERIS_TYPE":0,"CLASSIFICATION_TYPE":"U","NORAD_CAT_ID":50470,"ELEMENT_SET_NO":999,"REV_AT_EPOCH":19398,"BSTAR":0.00018609832,"MEAN_MOTION_DOT":8.5e-7,"MEAN_MOTION_DDOT":0},{"OBJECT_NAME":"ONEWEB-0391","OBJECT_ID":"2021-132C","EPOCH":"2025-12-16T04:42:07.874208","MEAN_MOTION":13.17648193,"ECCENTRICITY":0.00016626,"INCLINATION":87.9107,"RA_OF_ASC_NODE":42.2685,"ARG_OF_PERICENTER":129.1573,"MEAN_ANOMALY":230.9706,"EPHEMERIS_TYPE":0,"CLASSIFICATION_TYPE":"U","NORAD_CAT_ID":50471,"ELEMENT_SET_NO":999,"REV_AT_EPOCH":19398,"BSTAR":0.00020868512,"MEAN_MOTION_DOT":9.4e-7,"MEAN_MOTION_DDOT":0},{"OBJECT_NAME":"ONEWEB-0392","OBJECT_ID":"2021-132D","EPOCH":"2025-12-16T03:36:31.266432","MEAN_MOTION":13.17649727,"ECCENTRICITY":0.00018126,"INCLINATION":87.9118,"RA_OF_ASC_NODE":42.2301,"ARG_OF_PERICENTER":113.0042,"MEAN_ANOMALY":247.1281,"EPHEMERIS_TYPE":0,"CLASSIFICATION_TYPE":"U","NORAD_CAT_ID":50472,"ELEMENT_SET_NO":999,"REV_AT_EPOCH":19401,"BSTAR":1.822817e-5,"MEAN_MOTION_DOT":2.0e-7,"MEAN_MOTION_DDOT":0},{"OBJECT_NAME":"ONEWEB-0393","OBJECT_ID":"2021-132E","EPOCH":"2025-12-16T04:47:11.007744","MEAN_MOTION":13.17648528,"ECCENTRICITY":0.00017744,"INCLINATION":87.9118,"RA_OF_ASC_NODE":42.2425,"ARG_OF_PERICENTER":106.459,"MEAN_ANOMALY":253.6736,"EPHEMERIS_TYPE":0,"CLASSIFICATION_TYPE":"U","NORAD_CAT_ID":50473,"ELEMENT_SET_NO":999,"REV_AT_EPOCH":19401,"BSTAR":2.96372e-5,"MEAN_MOTION_DOT":2.4e-7,"MEAN_MOTION_DDOT":0}]
