ONEWEB-0377             
1 49303U 21090AA  25350.28471739  .00000000  00000+0 -31200-4 0  9997
2 49303  87.9205 310.9123 0001680  84.2532 275.8793 13.20769099206375
ONEWEB-0378             
1 49304U 21090AB  25350.30682593  .00000127  00000+0  28052-3 0  9992
2 49304  87.9202 310.9221 0001890  85.4400 274.6950 13.20771285205643
ONEWEB-0379             
1 49305U 21090AC  25349.97458210 -.00000214  00000+0 -61297-3 0  9998
2 49305  87.8992 326.2078 0001915  86.1384 273.9964 13.14501015203499
ONEWEB-0380             
1 49306U 21090AD  25350.23921430  .00000004  00000+0 -22921-4 0  9997
2 49306  87.9199 341.3768 0001700  94.2092 265.9235 13.19724211202291
ONEWEB-0381             
1 49307U 21090AE  25350.28143280  .00000035  00000+0  54011-4 0  9990
2 49307  87.9203 310.9159 0001859  89.7049 270.4297 13.20770553205687
ONEWEB-0382             
1 49308U 21090AF  25350.34454975  .00000059  00000+0  11315-3 0  9999
2 49308  87.9207 310.8992 0002053  90.2924 269.8445 13.20769303205680
ONEWEB-0383             
1 49309U 21090AG  25350.34882435 -.00000128  00000+0 -37857-3 0  9994
2 49309  87.8997 326.1181 0001957  87.1495 272.9858 13.14504625203572
ONEWEB-0384             
1 49310U 21090AH  25350.33789453  .00000060  00000+0  11665-3 0  9993
2 49310  87.9217 310.9366 0002217  92.7783 267.3604 13.20799590205694
ONEWEB-0385             
1 49311U 21090AJ  25350.33666751  .00000063  00000+0  12228-3 0  9998
2 49311  87.9203 310.9053 0001863  85.9588 274.1758 13.20770643205667
ONEWEB-0386             
1 49312U 21090AK  25350.27827523  .00000015  00000+0  58351-5 0  9994
2 49312  87.9209 310.9013 0002034  88.0237 272.1129 13.20770594205672
ONEWEB-0387             
1 49313U 21090AL  25350.33824891  .00000055  00000+0  10237-3 0  9990
2 49313  87.9201 310.9345 0001657  90.5749 269.5574 13.20771186205682
ONEWEB-0388             
1 49314U 21090AM  25350.23447238  .00000059  00000+0  11415-3 0  9999
2 49314  87.9195 341.3784 0001926  91.3802 268.7551 13.19724362202289
ONEWEB-0389             
1 50469U 21132A   25350.19254958  .00000095  00000+0  21206-3 0  9998
2 50469  87.9112  42.2576 0001857 112.1573 247.9756 13.17648601193988
ONEWEB-0390             
1 50470U 21132B   25350.19423412  .00000085  00000+0  18610-3 0  9997
2 50470  87.9108  42.2592 0001524  98.4695 261.6609 13.17649943193985
ONEWEB-0391             
1 50471U 21132C   25350.19592447  .00000094  00000+0  20869-3 0  9992
2 50471  87.9107  42.2685 0001662 129.1573 230.9706 13.17648193193981
ONEWEB-0392             
1 50472U 21132D   25350.15036188  .00000020  00000+0  18228-4 0  9990
2 50472  87.9118  42.2301 0001812 113.0042 247.1281 13.17649727194016
ONEWEB-0393             
1 50473U 21132E   25350.19943296  .00000024  00000+0  29637-4 0  9992
2 50473  87.9118  42.2425 0001774 106.4590 253.6736 13.17648528194010
